{
 "generated_at": "2026-06-28T08:21:54Z",
 "sources": [
  {
   "name": "CelesTrak",
   "url": "https://celestrak.org/NORAD/elements/",
   "license": "frei verfügbar; Attribution. Ursprünglich USSPACECOM/Space-Track."
  },
  {
   "name": "GCAT (J. McDowell, planet4589.org)",
   "url": "https://planet4589.org/space/gcat/",
   "license": "CC-BY 4.0"
  }
 ],
 "satellites": [
  {
   "norad": 55973,
   "name": "TIANMU-1 03",
   "intl": "2023-039A",
   "group": "weather",
   "gcat": {
    "class": "B",
    "category": "MET",
    "owner": "TIANMU",
    "state": "CN"
   },
   "omm": {
    "OBJECT_NAME": "TIANMU-1 03",
    "OBJECT_ID": "2023-039A",
    "EPOCH": "2026-06-27T21:56:12.661152",
    "MEAN_MOTION": 15.47581355,
    "ECCENTRICITY": 0.00039341,
    "INCLINATION": 97.5228,
    "RA_OF_ASC_NODE": 353.3054,
    "ARG_OF_PERICENTER": 73.4515,
    "MEAN_ANOMALY": 286.7167,
    "EPHEMERIS_TYPE": 0,
    "CLASSIFICATION_TYPE": "U",
    "NORAD_CAT_ID": 55973,
    "ELEMENT_SET_NO": 999,
    "REV_AT_EPOCH": 18249,
    "BSTAR": 0.00029286129,
    "MEAN_MOTION_DOT": 0.00015002,
    "MEAN_MOTION_DDOT": 0
   }
  },
  {
   "norad": 55974,
   "name": "TIANMU-1 04",
   "intl": "2023-039B",
   "group": "weather",
   "gcat": {
    "class": "B",
    "category": "MET",
    "owner": "TIANMU",
    "state": "CN"
   },
   "omm": {
    "OBJECT_NAME": "TIANMU-1 04",
    "OBJECT_ID": "2023-039B",
    "EPOCH": "2026-06-27T23:08:07.446048",
    "MEAN_MOTION": 15.48193363,
    "ECCENTRICITY": 0.0004322,
    "INCLINATION": 97.5168,
    "RA_OF_ASC_NODE": 352.5116,
    "ARG_OF_PERICENTER": 66.3098,
    "MEAN_ANOMALY": 293.8605,
    "EPHEMERIS_TYPE": 0,
    "CLASSIFICATION_TYPE": "U",
    "NORAD_CAT_ID": 55974,
    "ELEMENT_SET_NO": 999,
    "REV_AT_EPOCH": 18251,
    "BSTAR": 0.00030319328,
    "MEAN_MOTION_DOT": 0.00015871,
    "MEAN_MOTION_DDOT": 0
   }
  },
  {
   "norad": 55975,
   "name": "TIANMU-1 05",
   "intl": "2023-039C",
   "group": "weather",
   "gcat": {
    "class": "B",
    "category": "MET",
    "owner": "TIANMU",
    "state": "CN"
   },
   "omm": {
    "OBJECT_NAME": "TIANMU-1 05",
    "OBJECT_ID": "2023-039C",
    "EPOCH": "2026-06-27T23:02:22.830144",
    "MEAN_MOTION": 15.47508432,
    "ECCENTRICITY": 0.00038827,
    "INCLINATION": 97.5211,
    "RA_OF_ASC_NODE": 352.964,
    "ARG_OF_PERICENTER": 88.4115,
    "MEAN_ANOMALY": 271.758,
    "EPHEMERIS_TYPE": 0,
    "CLASSIFICATION_TYPE": "U",
    "NORAD_CAT_ID": 55975,
    "ELEMENT_SET_NO": 999,
    "REV_AT_EPOCH": 18248,
    "BSTAR": 0.00029919346,
    "MEAN_MOTION_DOT": 0.0001529,
    "MEAN_MOTION_DDOT": 0
   }
  },
  {
   "norad": 55976,
   "name": "TIANMU-1 06",
   "intl": "2023-039D",
   "group": "weather",
   "gcat": {
    "class": "B",
    "category": "MET",
    "owner": "TIANMU",
    "state": "CN"
   },
   "omm": {
    "OBJECT_NAME": "TIANMU-1 06",
    "OBJECT_ID": "2023-039D",
    "EPOCH": "2026-06-27T23:13:57.893952",
    "MEAN_MOTION": 15.48093876,
    "ECCENTRICITY": 0.00040962,
    "INCLINATION": 97.522,
    "RA_OF_ASC_NODE": 353.6188,
    "ARG_OF_PERICENTER": 83.7719,
    "MEAN_ANOMALY": 276.3998,
    "EPHEMERIS_TYPE": 0,
    "CLASSIFICATION_TYPE": "U",
    "NORAD_CAT_ID": 55976,
    "ELEMENT_SET_NO": 999,
    "REV_AT_EPOCH": 18251,
    "BSTAR": 0.00029341256,
    "MEAN_MOTION_DOT": 0.00015301,
    "MEAN_MOTION_DDOT": 0
   }
  },
  {
   "norad": 57399,
   "name": "TIANMU-1 07",
   "intl": "2023-101A",
   "group": "weather",
   "gcat": {
    "class": "B",
    "category": "MET",
    "owner": "TIANMU",
    "state": "CN"
   },
   "omm": {
    "OBJECT_NAME": "TIANMU-1 07",
    "OBJECT_ID": "2023-101A",
    "EPOCH": "2026-06-27T22:59:14.460864",
    "MEAN_MOTION": 15.29928623,
    "ECCENTRICITY": 0.00043568,
    "INCLINATION": 97.2591,
    "RA_OF_ASC_NODE": 229.3789,
    "ARG_OF_PERICENTER": 99.7337,
    "MEAN_ANOMALY": 260.4396,
    "EPHEMERIS_TYPE": 0,
    "CLASSIFICATION_TYPE": "U",
    "NORAD_CAT_ID": 57399,
    "ELEMENT_SET_NO": 999,
    "REV_AT_EPOCH": 16329,
    "BSTAR": 0.000218653,
    "MEAN_MOTION_DOT": 0.00006263,
    "MEAN_MOTION_DDOT": 0
   }
  },
  {
   "norad": 57400,
   "name": "TIANMU-1 08",
   "intl": "2023-101B",
   "group": "weather",
   "gcat": {
    "class": "B",
    "category": "MET",
    "owner": "TIANMU",
    "state": "CN"
   },
   "omm": {
    "OBJECT_NAME": "TIANMU-1 08",
    "OBJECT_ID": "2023-101B",
    "EPOCH": "2026-06-27T22:11:09.741120",
    "MEAN_MOTION": 15.2993275,
    "ECCENTRICITY": 0.00056394,
    "INCLINATION": 97.258,
    "RA_OF_ASC_NODE": 229.1153,
    "ARG_OF_PERICENTER": 89.3558,
    "MEAN_ANOMALY": 270.8329,
    "EPHEMERIS_TYPE": 0,
    "CLASSIFICATION_TYPE": "U",
    "NORAD_CAT_ID": 57400,
    "ELEMENT_SET_NO": 999,
    "REV_AT_EPOCH": 16328,
    "BSTAR": 0.00021447186,
    "MEAN_MOTION_DOT": 0.00006144,
    "MEAN_MOTION_DDOT": 0
   }
  },
  {
   "norad": 57401,
   "name": "TIANMU-1 09",
   "intl": "2023-101C",
   "group": "weather",
   "gcat": {
    "class": "B",
    "category": "MET",
    "owner": "TIANMU",
    "state": "CN"
   },
   "omm": {
    "OBJECT_NAME": "TIANMU-1 09",
    "OBJECT_ID": "2023-101C",
    "EPOCH": "2026-06-27T23:21:07.969824",
    "MEAN_MOTION": 15.2996825,
    "ECCENTRICITY": 0.00048947,
    "INCLINATION": 97.2538,
    "RA_OF_ASC_NODE": 228.5731,
    "ARG_OF_PERICENTER": 102.8509,
    "MEAN_ANOMALY": 257.3279,
    "EPHEMERIS_TYPE": 0,
    "CLASSIFICATION_TYPE": "U",
    "NORAD_CAT_ID": 57401,
    "ELEMENT_SET_NO": 999,
    "REV_AT_EPOCH": 16329,
    "BSTAR": 0.0002215373,
    "MEAN_MOTION_DOT": 0.00006355,
    "MEAN_MOTION_DDOT": 0
   }
  },
  {
   "norad": 57402,
   "name": "TIANMU-1 10",
   "intl": "2023-101D",
   "group": "weather",
   "gcat": {
    "class": "B",
    "category": "MET",
    "owner": "TIANMU",
    "state": "CN"
   },
   "omm": {
    "OBJECT_NAME": "TIANMU-1 10",
    "OBJECT_ID": "2023-101D",
    "EPOCH": "2026-06-27T22:34:49.535040",
    "MEAN_MOTION": 15.29940047,
    "ECCENTRICITY": 0.00064383,
    "INCLINATION": 97.2617,
    "RA_OF_ASC_NODE": 229.6031,
    "ARG_OF_PERICENTER": 98.9181,
    "MEAN_ANOMALY": 261.2789,
    "EPHEMERIS_TYPE": 0,
    "CLASSIFICATION_TYPE": "U",
    "NORAD_CAT_ID": 57402,
    "ELEMENT_SET_NO": 999,
    "REV_AT_EPOCH": 16328,
    "BSTAR": 0.00022741092,
    "MEAN_MOTION_DOT": 0.00006521,
    "MEAN_MOTION_DDOT": 0
   }
  },
  {
   "norad": 58645,
   "name": "TIANMU-1 11",
   "intl": "2023-205A",
   "group": "weather",
   "gcat": {
    "class": "B",
    "category": "MET",
    "owner": "TIANMU",
    "state": "CN"
   },
   "omm": {
    "OBJECT_NAME": "TIANMU-1 11",
    "OBJECT_ID": "2023-205A",
    "EPOCH": "2026-06-27T23:55:14.666592",
    "MEAN_MOTION": 15.27102909,
    "ECCENTRICITY": 0.00076415,
    "INCLINATION": 97.3441,
    "RA_OF_ASC_NODE": 200.384,
    "ARG_OF_PERICENTER": 337.4996,
    "MEAN_ANOMALY": 22.5907,
    "EPHEMERIS_TYPE": 0,
    "CLASSIFICATION_TYPE": "U",
    "NORAD_CAT_ID": 58645,
    "ELEMENT_SET_NO": 999,
    "REV_AT_EPOCH": 13917,
    "BSTAR": 0.00021349329,
    "MEAN_MOTION_DOT": 0.00005606,
    "MEAN_MOTION_DDOT": 0
   }
  },
  {
   "norad": 58646,
   "name": "TIANMU-1 12",
   "intl": "2023-205B",
   "group": "weather",
   "gcat": {
    "class": "B",
    "category": "MET",
    "owner": "TIANMU",
    "state": "CN"
   },
   "omm": {
    "OBJECT_NAME": "TIANMU-1 12",
    "OBJECT_ID": "2023-205B",
    "EPOCH": "2026-06-27T21:38:39.428736",
    "MEAN_MOTION": 15.26997637,
    "ECCENTRICITY": 0.00056163,
    "INCLINATION": 97.3431,
    "RA_OF_ASC_NODE": 200.0443,
    "ARG_OF_PERICENTER": 317.9001,
    "MEAN_ANOMALY": 42.1806,
    "EPHEMERIS_TYPE": 0,
    "CLASSIFICATION_TYPE": "U",
    "NORAD_CAT_ID": 58646,
    "ELEMENT_SET_NO": 999,
    "REV_AT_EPOCH": 13914,
    "BSTAR": 0.00014266311,
    "MEAN_MOTION_DOT": 0.00003708,
    "MEAN_MOTION_DDOT": 0
   }
  }
 ]
}
